{"type": "FeatureCollection", "features": [ {"type": "Feature", "properties": {"norad_id": 30928, "name": "FENGYUN 1C DEB", "group": "fengyun-1c-debris", "lat": 78.53400125380506, "lon": 27.77185271029117, "alt_km": 973.6217516173419, "timestamp": "2025-12-15T07:02:37.896230+00:00", "meta": {"OBJECT_NAME": "FENGYUN 1C DEB", "OBJECT_ID": "1999-025AZS", "EPOCH": "2025-12-14T05:32:07.833408", "MEAN_MOTION": 13.22240952, "ECCENTRICITY": 0.04501806, "INCLINATION": 98.883, "RA_OF_ASC_NODE": 77.3077, "ARG_OF_PERICENTER": 28.2064, "MEAN_ANOMALY": 33.639, "EPHEMERIS_TYPE": 0, "CLASSIFICATION_TYPE": "U", "NORAD_CAT_ID": 30928, "ELEMENT_SET_NO": 999, "REV_AT_EPOCH": 90368, "BSTAR": 0.0010797491, "MEAN_MOTION_DOT": 7.33e-06, "MEAN_MOTION_DDOT": 0}, "tle": {"line1": "1 30928U 99025AZS 25348.23064622  .00000733  00000+0  10797-2 0  9992", "line2": "2 30928  98.8830  77.3077 0450180  28.2064  33.6390 13.22240952903681"}}, "geometry": {"type": "Point", "coordinates": [27.77185271029117, 78.53400125380506]}}, {"type": "Feature", "properties": {"norad_id": 30930, "name": "FENGYUN 1C DEB", "group": "fengyun-1c-debris", "lat": -17.773713993326492, "lon": -165.18162350496496, "alt_km": 783.6821594150579, "timestamp": "2025-12-15T07:02:37.896240+00:00", "meta": {"OBJECT_NAME": "FENGYUN 1C DEB", "OBJECT_ID": "1999-025AZU", "EPOCH": "2025-12-14T08:29:32.951040", "MEAN_MOTION": 14.37394334, "ECCENTRICITY": 0.01097565, "INCLINATION": 98.2154, "RA_OF_ASC_NODE": 16.5749, "ARG_OF_PERICENTER": 101.5313, "MEAN_ANOMALY": 275.611, "EPHEMERIS_TYPE": 0, "CLASSIFICATION_TYPE": "U", "NORAD_CAT_ID": 30930, "ELEMENT_SET_NO": 999, "REV_AT_EPOCH": 98355, "BSTAR": 0.00044213384, "MEAN_MOTION_DOT": 1.374e-05, "MEAN_MOTION_DDOT": 0}, "tle": {"line1": "1 30930U 99025AZU 25348.35385360  .00001374  00000+0  44213-3 0  9996", "line2": "2 30930  98.2154  16.5749 0109756 101.5313 275.6110 14.37394334983553"}}, "geometry": {"type": "Point", "coordinates": [-165.18162350496496, -17.773713993326492]}}, {"type": "Feature", "properties": {"norad_id": 30931, "name": "FENGYUN 1C DEB", "group": "fengyun-1c-debris", "lat": 60.47055630106512, "lon": 30.266818779036942, "alt_km": 822.4034054012764, "timestamp": "2025-12-15T07:02:37.896251+00:00", "meta": {"OBJECT_NAME": "FENGYUN 1C DEB", "OBJECT_ID": "1999-025AZV", "EPOCH": "2025-12-14T03:28:08.644800", "MEAN_MOTION": 14.01515307, "ECCENTRICITY": 0.00931341, "INCLINATION": 99.172, "RA_OF_ASC_NODE": 45.6844, "ARG_OF_PERICENTER": 37.5997, "MEAN_ANOMALY": 349.9588, "EPHEMERIS_TYPE": 0, "CLASSIFICATION_TYPE": "U", "NORAD_CAT_ID": 30931, "ELEMENT_SET_NO": 999, "REV_AT_EPOCH": 95945, "BSTAR": 0.00067605082, "MEAN_MOTION_DOT": 1.016e-05, "MEAN_MOTION_DDOT": 0}, "tle": {"line1": "1 30931U 99025AZV 25348.14454450  .00001016  00000+0  67605-3 0  9994", "line2": "2 30931  99.1720  45.6844 0093134  37.5997 349.9588 14.01515307959452"}}, "geometry": {"type": "Point", "coordinates": [30.266818779036942, 60.47055630106512]}}, {"type": "Feature", "properties": {"norad_id": 30932, "name": "FENGYUN 1C DEB", "group": "fengyun-1c-debris", "lat": -41.84372870012024, "lon": 94.16892150562981, "alt_km": 790.4500793289899, "timestamp": "2025-12-15T07:02:37.896264+00:00", "meta": {"OBJECT_NAME": "FENGYUN 1C DEB", "OBJECT_ID": "1999-025AZW", "EPOCH": "2025-12-14T06:26:14.381664", "MEAN_MOTION": 14.26837649, "ECCENTRICITY": 0.00581207, "INCLINATION": 98.9074, "RA_OF_ASC_NODE": 281.1987, "ARG_OF_PERICENTER": 289.5412, "MEAN_ANOMALY": 69.9497, "EPHEMERIS_TYPE": 0, "CLASSIFICATION_TYPE": "U", "NORAD_CAT_ID": 30932, "ELEMENT_SET_NO": 999, "REV_AT_EPOCH": 96416, "BSTAR": 0.0030626937, "MEAN_MOTION_DOT": 7.523e-05, "MEAN_MOTION_DDOT": 0}, "tle": {"line1": "1 30932U 99025AZW 25348.26822201  .00007523  00000+0  30627-2 0  9993", "line2": "2 30932  98.9074 281.1987 0058120 289.5412  69.9497 14.26837649964169"}}, "geometry": {"type": "Point", "coordinates": [94.16892150562981, -41.84372870012024]}}, {"type": "Feature", "properties": {"norad_id": 30933, "name": "FENGYUN 1C DEB", "group": "fengyun-1c-debris", "lat": -29.099230979455516, "lon": 146.82583088053013, "alt_km": 790.383450189709, "timestamp": "2025-12-15T07:02:37.896278+00:00", "meta": {"OBJECT_NAME": "FENGYUN 1C DEB", "OBJECT_ID": "1999-025AZX", "EPOCH": "2025-12-14T12:16:35.924160", "MEAN_MOTION": 14.36558792, "ECCENTRICITY": 0.00766494, "INCLINATION": 99.0473, "RA_OF_ASC_NODE": 331.0925, "ARG_OF_PERICENTER": 317.711, "MEAN_ANOMALY": 170.7532, "EPHEMERIS_TYPE": 0, "CLASSIFICATION_TYPE": "U", "NORAD_CAT_ID": 30933, "ELEMENT_SET_NO": 999, "REV_AT_EPOCH": 95897, "BSTAR": 0.0052777404, "MEAN_MOTION_DOT": 0.00016025, "MEAN_MOTION_DDOT": 0}, "tle": {"line1": "1 30933U 99025AZX 25348.51152690  .00016025  00000+0  52777-2 0  9997", "line2": "2 30933  99.0473 331.0925 0076649 317.7110 170.7532 14.36558792958970"}}, "geometry": {"type": "Point", "coordinates": [146.82583088053013, -29.099230979455516]}}, {"type": "Feature", "properties": {"norad_id": 30934, "name": "FENGYUN 1C DEB", "group": "fengyun-1c-debris", "lat": 42.72784030210062, "lon": -142.21515104023172, "alt_km": 861.6408029763306, "timestamp": "2025-12-15T07:02:37.896288+00:00", "meta": {"OBJECT_NAME": "FENGYUN 1C DEB", "OBJECT_ID": "1999-025AZY", "EPOCH": "2025-12-14T21:55:22.800576", "MEAN_MOTION": 13.46749484, "ECCENTRICITY": 0.03407293, "INCLINATION": 98.7657, "RA_OF_ASC_NODE": 225.6446, "ARG_OF_PERICENTER": 75.977, "MEAN_ANOMALY": 287.8994, "EPHEMERIS_TYPE": 0, "CLASSIFICATION_TYPE": "U", "NORAD_CAT_ID": 30934, "ELEMENT_SET_NO": 999, "REV_AT_EPOCH": 91737, "BSTAR": 0.002042165, "MEAN_MOTION_DOT": 1.724e-05, "MEAN_MOTION_DDOT": 0}, "tle": {"line1": "1 30934U 99025AZY 25348.91345834  .00001724  00000+0  20422-2 0  9998", "line2": "2 30934  98.7657 225.6446 0340729  75.9770 287.8994 13.46749484917376"}}, "geometry": {"type": "Point", "coordinates": [-142.21515104023172, 42.72784030210062]}}, {"type": "Feature", "properties": {"norad_id": 30936, "name": "FENGYUN 1C DEB", "group": "fengyun-1c-debris", "lat": 60.34067054753061, "lon": 4.65388317205826, "alt_km": 832.669405285581, "timestamp": "2025-12-15T07:02:37.896298+00:00", "meta": {"OBJECT_NAME": "FENGYUN 1C DEB", "OBJECT_ID": "1999-025BAA", "EPOCH": "2025-12-14T08:53:39.993792", "MEAN_MOTION": 14.23377519, "ECCENTRICITY": 0.0045927, "INCLINATION": 98.5817, "RA_OF_ASC_NODE": 19.1315, "ARG_OF_PERICENTER": 285.9025, "MEAN_ANOMALY": 88.9313, "EPHEMERIS_TYPE": 0, "CLASSIFICATION_TYPE": "U", "NORAD_CAT_ID": 30936, "ELEMENT_SET_NO": 999, "REV_AT_EPOCH": 97156, "BSTAR": 0.00063671738, "MEAN_MOTION_DOT": 1.417e-05, "MEAN_MOTION_DDOT": 0}, "tle": {"line1": "1 30936U 99025BAA 25348.37060178  .00001417  00000+0  63672-3 0  9999", "line2": "2 30936  98.5817  19.1315 0045927 285.9025  88.9313 14.23377519971561"}}, "geometry": {"type": "Point", "coordinates": [4.65388317205826, 60.34067054753061]}}, {"type": "Feature", "properties": {"norad_id": 30937, "name": "FENGYUN 1C DEB", "group": "fengyun-1c-debris", "lat": -3.77348712712781, "lon": 42.223704454114156, "alt_km": 876.7657312245728, "timestamp": "2025-12-15T07:02:37.896309+00:00", "meta": {"OBJECT_NAME": "FENGYUN 1C DEB", "OBJECT_ID": "1999-025BAB", "EPOCH": "2025-12-14T10:29:22.682112", "MEAN_MOTION": 13.95585351, "ECCENTRICITY": 0.00757514, "INCLINATION": 99.0887, "RA_OF_ASC_NODE": 40.7744, "ARG_OF_PERICENTER": 48.6789, "MEAN_ANOMALY": 327.8444, "EPHEMERIS_TYPE": 0, "CLASSIFICATION_TYPE": "U", "NORAD_CAT_ID": 30937, "ELEMENT_SET_NO": 999, "REV_AT_EPOCH": 95740, "BSTAR": 0.00024671146, "MEAN_MOTION_DOT": 3e-06, "MEAN_MOTION_DDOT": 0}, "tle": {"line1": "1 30937U 99025BAB 25348.43706808  .00000300  00000+0  24671-3 0  9990", "line2": "2 30937  99.0887  40.7744 0075751  48.6789 327.8444 13.95585351957400"}}, "geometry": {"type": "Point", "coordinates": [42.223704454114156, -3.77348712712781]}}, {"type": "Feature", "properties": {"norad_id": 30938, "name": "FENGYUN 1C DEB", "group": "fengyun-1c-debris", "lat": -57.775509135778435, "lon": 16.58724891062259, "alt_km": 805.9596713674719, "timestamp": "2025-12-15T07:02:37.896318+00:00", "meta": {"OBJECT_NAME": "FENGYUN 1C DEB", "OBJECT_ID": "1999-025BAC", "EPOCH": "2025-12-14T15:00:20.921760", "MEAN_MOTION": 14.19822374, "ECCENTRICITY": 0.00458084, "INCLINATION": 98.591, "RA_OF_ASC_NODE": 2.0623, "ARG_OF_PERICENTER": 338.2698, "MEAN_ANOMALY": 149.5266, "EPHEMERIS_TYPE": 0, "CLASSIFICATION_TYPE": "U", "NORAD_CAT_ID": 30938, "ELEMENT_SET_NO": 999, "REV_AT_EPOCH": 97146, "BSTAR": 0.00042330882, "MEAN_MOTION_DOT": 8.64e-06, "MEAN_MOTION_DDOT": 0}, "tle": {"line1": "1 30938U 99025BAC 25348.62524215  .00000864  00000+0  42331-3 0  9990", "line2": "2 30938  98.5910   2.0623 0045808 338.2698 149.5266 14.19822374971465"}}, "geometry": {"type": "Point", "coordinates": [16.58724891062259, -57.775509135778435]}}, {"type": "Feature", "properties": {"norad_id": 30940, "name": "FENGYUN 1C DEB", "group": "fengyun-1c-debris", "lat": 57.95678794252101, "lon": -176.44575867959583, "alt_km": 876.225565572473, "timestamp": "2025-12-15T07:02:37.896328+00:00", "meta": {"OBJECT_NAME": "FENGYUN 1C DEB", "OBJECT_ID": "1999-025BAE", "EPOCH": "2025-12-13T06:48:08.301024", "MEAN_MOTION": 14.08306101, "ECCENTRICITY": 0.00410694, "INCLINATION": 98.6232, "RA_OF_ASC_NODE": 347.6027, "ARG_OF_PERICENTER": 2.3004, "MEAN_ANOMALY": 13.0796, "EPHEMERIS_TYPE": 0, "CLASSIFICATION_TYPE": "U", "NORAD_CAT_ID": 30940, "ELEMENT_SET_NO": 999, "REV_AT_EPOCH": 96140, "BSTAR": 0.00070799031, "MEAN_MOTION_DOT": 1.178e-05, "MEAN_MOTION_DDOT": 0}, "tle": {"line1": "1 30940U 99025BAE 25347.28342941  .00001178  00000+0  70799-3 0  9996", "line2": "2 30940  98.6232 347.6027 0041069   2.3004  13.0796 14.08306101961406"}}, "geometry": {"type": "Point", "coordinates": [-176.44575867959583, 57.95678794252101]}}]}